NORAD_CAT_ID,OBJECT_NAME,OBJECT_TYPE,EPOCH,MEAN_MOTION,ECCENTRICITY,INCLINATION,RA_OF_ASC_NODE,ARG_OF_PERICENTER,MEAN_ANOMALY,BSTAR,MEAN_MOTION_DOT,MEAN_MOTION_DDOT,TLE_LINE0,TLE_LINE1,TLE_LINE2,SEMIMAJOR_AXIS,PERIOD,APOGEE,PERIGEE,DECAYED
54182.0,STARLINK-5231,PAYLOAD,2024-05-23 23:15:04,15.08843134,0.0001594,53.219,32.905,95.2878,264.8296,0.00018062,2.588e-05,0.0,0 STARLINK-5231,1 54182U 22141AB  24144.96879692  .00002588  00000-0  18062-3 0  9994,2 54182  53.2190  32.9050 0001594  95.2878 264.8296 15.08843134 87671,6917.871,95.437,540.839,538.633,0.0
54182.0,STARLINK-5231,PAYLOAD,2024-05-24 21:30:28,15.08831057,0.0001475,53.2175,28.7462,121.2101,238.9036,-0.00010566,-1.969e-05,0.0,0 STARLINK-5231,1 54182U 22141AB  24145.89616220 -.00001969  00000-0 -10566-3 0  9998,2 54182  53.2175  28.7462 0001475 121.2101 238.9036 15.08831057 87812,6917.908,95.438,540.793,538.752,0.0
54182.0,STARLINK-5231,PAYLOAD,2024-05-24 23:05:51,15.08828876,0.000108,53.2166,28.4539,106.1694,253.9417,-0.00011868,-2.175e-05,0.0,0 STARLINK-5231,1 54182U 22141AB  24145.96240564 -.00002175  00000-0 -11868-3 0  9996,2 54182  53.2166  28.4539 0001080 106.1694 253.9417 15.08828876 87595,6917.914,95.438,540.527,539.032,0.0
54182.0,STARLINK-5231,PAYLOAD,2024-05-25 14:59:43,15.08831507,0.0001204,53.2172,25.48,103.4777,256.6349,0.00011414,1.529e-05,0.0,0 STARLINK-5231,1 54182U 22141AB  24146.62481025  .00001529  00000-0  11414-3 0  9996,2 54182  53.2172  25.4800 0001204 103.4777 256.6349 15.08831507 87690,6917.906,95.438,540.604,538.938,0.0
54182.0,STARLINK-5231,PAYLOAD,2024-05-25 21:21:15,15.08851395,0.0001459,53.2176,24.2922,114.4499,245.6645,0.00029382,4.393e-05,0.0,0 STARLINK-5231,1 54182U 22141AB  24146.88976076  .00004393  00000-0  29382-3 0  9994,2 54182  53.2176  24.2922 0001459 114.4499 245.6645 15.08851395 87965,6917.846,95.437,540.72,538.701,0.0
54182.0,STARLINK-5231,PAYLOAD,2024-05-25 22:56:39,15.08837441,0.0001317,53.2173,23.9945,100.7925,259.3215,6.871e-05,8.06e-06,0.0,0 STARLINK-5231,1 54182U 22141AB  24146.95600782  .00000806  00000-0  68710-4 0  9994,2 54182  53.2173  23.9945 0001317 100.7925 259.3215 15.08837441 87970,6917.888,95.438,540.664,538.842,0.0
54182.0,STARLINK-5231,PAYLOAD,2024-05-26 22:47:25,15.08850896,0.0001241,53.2172,19.5326,87.881,272.2324,0.00020803,3.025e-05,0.0,0 STARLINK-5231,1 54182U 22141AB  24147.94960384  .00003025  00000-0  20803-3 0  9997,2 54182  53.2172  19.5326 0001241  87.8810 272.2324 15.08850896 87892,6917.847,95.437,540.571,538.854,0.0
54182.0,STARLINK-5231,PAYLOAD,2024-05-27 08:19:37,15.08952415,0.0005848,53.2168,17.7443,254.2369,105.7979,0.0014779,0.0002339,0.0,0 STARLINK-5231,1 54182U 22141AB  24148.34696581  .00023390  00000-0  14779-2 0  9998,2 54182  53.2168  17.7443 0005848 254.2369 105.7979 15.08952415 88182,6917.537,95.43,543.447,535.356,0.0
54182.0,STARLINK-5231,PAYLOAD,2024-05-27 14:41:37,15.08410529,0.0004677,53.2168,16.5568,250.573,109.4757,-0.0064983,-0.00101099,0.0,0 STARLINK-5231,1 54182U 22141AB  24148.61223483 -.00101099  00000-0 -64983-2 0  9992,2 54182  53.2168  16.5568 0004677 250.5730 109.4757 15.08410529 87995,6919.193,95.465,544.295,537.822,0.0
54182.0,STARLINK-5231,PAYLOAD,2024-05-27 22:00:00,15.08859554,0.0001231,53.216,15.1925,85.0976,130.8603,-0.0028268,-0.00045019,0.0,0 STARLINK-5231,1 54182U 22141AB  24148.91667824 -.00045019  00000-0 -28268-2 0  9991,2 54182  53.2160  15.1925 0001231  85.0976 130.8603 15.08859554 88270,6917.821,95.436,540.537,538.834,0.0
54182.0,STARLINK-5231,PAYLOAD,2024-05-28 00:00:02,15.08837547,0.0001241,53.2161,14.8186,83.5823,225.3456,-0.00038511,-6.411e-05,0.0,0 STARLINK-5231,1 54182U 22141AB  24149.00002315 -.00006411  00000-0 -38511-3 0  9996,2 54182  53.2161  14.8186 0001241  83.5823 225.3456 15.08837547 88286,6917.888,95.438,540.611,538.894,0.0
54182.0,STARLINK-5231,PAYLOAD,2024-05-28 20:53:36,15.08848249,0.0001331,53.2177,10.9088,78.0891,282.025,5.0225e-05,5.12e-06,0.0,0 STARLINK-5231,1 54182U 22141AB  24149.87056174  .00000512  00000-0  50225-4 0  9994,2 54182  53.2177  10.9088 0001331  78.0891 282.0250 15.08848249 88413,6917.855,95.437,540.641,538.799,0.0
54182.0,STARLINK-5231,PAYLOAD,2024-05-28 22:28:59,15.08850142,0.0001361,53.2182,10.6119,77.8583,282.2562,6.2065e-05,7e-06,0.0,0 STARLINK-5231,1 54182U 22141AB  24149.93679986  .00000700  00000-0  62065-4 0  9997,2 54182  53.2182  10.6119 0001361  77.8583 282.2562 15.08850142 88197,6917.849,95.437,540.656,538.773,0.0
54182.0,STARLINK-5231,PAYLOAD,2024-05-29 20:44:23,15.08843116,0.0001242,53.2183,6.4469,87.6313,272.4821,5.4359e-05,5.77e-06,0.0,0 STARLINK-5231,1 54182U 22141AB  24150.86416366  .00000577  00000-0  54359-4 0  9991,2 54182  53.2183   6.4469 0001242  87.6313 272.4821 15.08843116 88560,6917.871,95.437,540.595,538.877,0.0
54182.0,STARLINK-5231,PAYLOAD,2024-05-30 14:13:37,15.08850463,0.0001404,53.2187,3.1785,80.9558,279.1593,6.5124e-05,7.49e-06,0.0,0 STARLINK-5231,1 54182U 22141AB  24151.59279968  .00000749  00000-0  65124-4 0  9990,2 54182  53.2187   3.1785 0001404  80.9558 279.1593 15.08850463 88446,6917.848,95.437,540.685,538.742,0.0
54182.0,STARLINK-5231,PAYLOAD,2024-05-30 20:35:09,15.0885545,0.0001458,53.2179,1.9904,74.1479,285.9674,0.00011717,1.578e-05,0.0,0 STARLINK-5231,1 54182U 22141AB  24151.85775437  .00001578  00000-0  11717-3 0  9990,2 54182  53.2179   1.9904 0001458  74.1479 285.9674 15.08855450 88718,6917.833,95.437,540.707,538.69,0.0
54182.0,STARLINK-5231,PAYLOAD,2024-05-31 20:25:57,15.08843713,0.0001277,53.2178,357.5277,87.7948,272.319,7.5818e-05,9.19e-06,0.0,0 STARLINK-5231,1 54182U 22141AB  24152.85135940  .00000919  00000-0  75818-4 0  9991,2 54182  53.2178 357.5277 0001277  87.7948 272.3190 15.08843713 88868,6917.869,95.437,540.617,538.851,0.0
54182.0,STARLINK-5231,PAYLOAD,2024-05-31 23:36:43,15.08845731,0.0001227,53.2173,356.9325,88.2756,271.8377,9.3425e-05,1.2e-05,0.0,0 STARLINK-5231,1 54182U 22141AB  24152.98383743  .00001200  00000-0  93425-4 0  9999,2 54182  53.2173 356.9325 0001227  88.2756 271.8377 15.08845731 88658,6917.863,95.437,540.577,538.879,0.0
54182.0,STARLINK-5231,PAYLOAD,2024-06-01 20:16:45,15.08839278,0.0001286,53.2174,353.0656,86.6385,273.4754,-4.5612e-05,-1.014e-05,0.0,0 STARLINK-5231,1 54182U 22141AB  24153.84496615 -.00001014  00000-0 -45612-4 0  9998,2 54182  53.2174 353.0656 0001286  86.6385 273.4754 15.08839278 89016,6917.883,95.438,540.637,538.858,0.0
54182.0,STARLINK-5231,PAYLOAD,2024-06-02 05:49:03,15.08839172,0.0001305,53.2175,351.2814,86.6173,273.4969,-3.5883e-05,-8.59e-06,0.0,0 STARLINK-5231,1 54182U 22141AB  24154.24240646 -.00000859  00000-0 -35883-4 0  9999,2 54182  53.2175 351.2814 0001305  86.6173 273.4969 15.08839172 88841,6917.883,95.438,540.651,538.845,0.0
54182.0,STARLINK-5231,PAYLOAD,2024-06-02 21:42:55,15.08842002,0.0001244,53.2168,348.3061,72.623,287.4898,7.3876e-05,8.88e-06,0.0,0 STARLINK-5231,1 54182U 22141AB  24154.90480489  .00000888  00000-0  73876-4 0  9997,2 54182  53.2168 348.3061 0001244  72.6230 287.4898 15.08842002 88948,6917.874,95.437,540.6,538.879,0.0
54182.0,STARLINK-5231,PAYLOAD,2024-06-03 05:39:50,15.08844002,0.0001216,53.2173,346.8207,77.038,283.0748,0.00012542,1.709e-05,0.0,0 STARLINK-5231,1 54182U 22141AB  24155.23600359  .00001709  00000-0  12542-3 0  9999,2 54182  53.2173 346.8207 0001216  77.0380 283.0748 15.08844002 88996,6917.868,95.437,540.574,538.892,0.0
54182.0,STARLINK-5231,PAYLOAD,2024-06-03 21:33:42,15.08839833,0.0001202,53.2172,343.8472,78.8513,281.2615,0.00012174,1.65e-05,0.0,0 STARLINK-5231,1 54182U 22141AB  24155.89840862  .00001650  00000-0  12174-3 0  9992,2 54182  53.2172 343.8472 0001202  78.8513 281.2615 15.08839833 89099,6917.881,95.438,540.577,538.914,0.0
54182.0,STARLINK-5231,PAYLOAD,2024-06-04 11:52:10,15.08841734,0.0001327,53.2196,341.1716,84.2155,275.8988,7.1366e-05,8.48e-06,0.0,0 STARLINK-5231,1 54182U 22141AB  24156.49457007  .00000848  00000-0  71366-4 0  9991,2 54182  53.2196 341.1716 0001327  84.2155 275.8988 15.08841734 89183,6917.875,95.437,540.658,538.822,0.0
54182.0,STARLINK-5231,PAYLOAD,2024-06-05 05:21:24,15.08850687,0.000129,53.2192,337.9023,87.5374,272.5765,0.00012279,1.667e-05,0.0,0 STARLINK-5231,1 54182U 22141AB  24157.22320018  .00001667  00000-0  12279-3 0  9991,2 54182  53.2192 337.9023 0001290  87.5374 272.5765 15.08850687 89523,6917.848,95.437,540.605,538.82,0.0
54182.0,STARLINK-5231,PAYLOAD,2024-06-05 18:04:30,15.08842788,0.0002057,53.2111,335.5211,86.7602,273.3625,7.294e-05,8.73e-06,0.0,0 STARLINK-5231,1 54182U 22141AB  24157.75312764  .00000873  00000-0  72940-4 0  9998,2 54182  53.2111 335.5211 0002057  86.7602 273.3625 15.08842788 89600,6917.872,95.437,541.16,538.314,0.0
54182.0,STARLINK-5231,PAYLOAD,2024-06-05 21:15:17,15.08831182,0.0001376,53.2088,334.9278,90.6765,269.4385,1.6244e-05,-2.9e-07,0.0,0 STARLINK-5231,1 54182U 22141AB  24157.88561483 -.00000029  00000-0  16244-4 0  9995,2 54182  53.2088 334.9278 0001376  90.6765 269.4385 15.08831182 89397,6917.907,95.438,540.724,538.82,0.0
54182.0,STARLINK-5231,PAYLOAD,2024-06-06 05:12:12,15.08835579,0.0001489,53.2108,333.441,90.3131,269.8032,4.6833e-05,4.57e-06,0.0,0 STARLINK-5231,1 54182U 22141AB  24158.21681279  .00000457  00000-0  46833-4 0  9990,2 54182  53.2108 333.4410 0001489  90.3131 269.8032 15.08835579 89679,6917.894,95.438,540.789,538.729,0.0
54182.0,STARLINK-5231,PAYLOAD,2024-06-06 21:06:00,15.08917013,0.0001622,53.2108,330.4635,110.8132,249.3034,-0.00097376,-0.00015785,0.0,0 STARLINK-5231,1 54182U 22141AB  24158.87917249 -.00015785  00000-0 -97376-3 0  9990,2 54182  53.2108 330.4635 0001622 110.8132 249.3034 15.08917013 89773,6917.645,95.433,540.632,538.388,0.0
54182.0,STARLINK-5231,PAYLOAD,2024-06-07 19:21:27,15.08836012,0.0001864,53.2133,326.3008,101.3888,258.7314,9.4821e-05,1.221e-05,0.0,0 STARLINK-5231,1 54182U 22141AB  24159.80657368  .00001221  00000-0  94821-4 0  9998,2 54182  53.2133 326.3008 0001864 101.3888 258.7314 15.08836012 89910,6917.893,95.438,541.047,538.468,0.0
